GALAXY 33 (G-33)        
1 54026U 22128A   26072.39905773  .00000079  00000+0  00000+0 0  9996
2 54026   0.0138 105.0382 0001794 258.0759 178.5705  1.00271687 12780
GALAXY 34 (G-34)        
1 54027U 22128B   26073.55851447  .00000058  00000+0  00000+0 0  9991
2 54027   0.0193 126.2425 0001378 229.1624 248.8130  1.00271519 12960
GALAXY 31 (G-31)        
1 54243U 22153A   26073.54454200  .00000012  00000+0  00000+0 0  9994
2 54243   0.0172 130.9169 0001401 238.8221 237.4474  1.00271874  6187
GALAXY 32 (G-32)        
1 54244U 22153B   26073.05128264 -.00000175  00000+0  00000+0 0  9990
2 54244   0.0167 115.0372 0002962 247.5224  96.5681  1.00271848 12198
GALAXY 35 (G-35)        
1 54741U 22170A   26073.47876173 -.00000163  00000+0  00000+0 0  9993
2 54741   0.0150 133.6078 0001953 222.8193 254.8999  1.00272218 11946
GALAXY 36 (G-36)        
1 54742U 22170B   26073.55086870 -.00000186  00000+0  00000+0 0  9995
2 54742   0.0128 180.8172 0002284 226.8985 233.7551  1.00272076 11821
GALAXY 37 (G-37)        
1 57493U 23112A   26073.54332867  .00000000  00000+0  00000+0 0  9991
2 57493   0.0222 165.3756 0002031 198.5187 236.8645  1.00270649  9590
