[{"OBJECT_NAME":"GALAXY 33 (G-33)","OBJECT_ID":"2022-128A","EPOCH":"2026-03-13T09:34:38.587872","MEAN_MOTION":1.00271687,"ECCENTRICITY":0.00017947,"INCLINATION":0.0138,"RA_OF_ASC_NODE":105.0382,"ARG_OF_PERICENTER":258.0759,"MEAN_ANOMALY":178.5705,"EPHEMERIS_TYPE":0,"CLASSIFICATION_TYPE":"U","NORAD_CAT_ID":54026,"ELEMENT_SET_NO":999,"REV_AT_EPOCH":1278,"BSTAR":0,"MEAN_MOTION_DOT":7.9e-7,"MEAN_MOTION_DDOT":0},{"OBJECT_NAME":"GALAXY 34 (G-34)","OBJECT_ID":"2022-128B","EPOCH":"2026-03-14T13:24:15.650208","MEAN_MOTION":1.00271519,"ECCENTRICITY":0.00013787,"INCLINATION":0.0193,"RA_OF_ASC_NODE":126.2425,"ARG_OF_PERICENTER":229.1624,"MEAN_ANOMALY":248.813,"EPHEMERIS_TYPE":0,"CLASSIFICATION_TYPE":"U","NORAD_CAT_ID":54027,"ELEMENT_SET_NO":999,"REV_AT_EPOCH":1296,"BSTAR":0,"MEAN_MOTION_DOT":5.8e-7,"MEAN_MOTION_DDOT":0},{"OBJECT_NAME":"GALAXY 31 (G-31)","OBJECT_ID":"2022-153A","EPOCH":"2026-03-14T13:04:08.428800","MEAN_MOTION":1.00271874,"ECCENTRICITY":0.00014017,"INCLINATION":0.0172,"RA_OF_ASC_NODE":130.9169,"ARG_OF_PERICENTER":238.8221,"MEAN_ANOMALY":237.4474,"EPHEMERIS_TYPE":0,"CLASSIFICATION_TYPE":"U","NORAD_CAT_ID":54243,"ELEMENT_SET_NO":999,"REV_AT_EPOCH":618,"BSTAR":0,"MEAN_MOTION_DOT":1.2e-7,"MEAN_MOTION_DDOT":0},{"OBJECT_NAME":"GALAXY 32 (G-32)","OBJECT_ID":"2022-153B","EPOCH":"2026-03-14T01:13:50.820096","MEAN_MOTION":1.00271848,"ECCENTRICITY":0.00029622,"INCLINATION":0.0167,"RA_OF_ASC_NODE":115.0372,"ARG_OF_PERICENTER":247.5224,"MEAN_ANOMALY":96.5681,"EPHEMERIS_TYPE":0,"CLASSIFICATION_TYPE":"U","NORAD_CAT_ID":54244,"ELEMENT_SET_NO":999,"REV_AT_EPOCH":1219,"BSTAR":0,"MEAN_MOTION_DOT":-1.75e-6,"MEAN_MOTION_DDOT":0},{"OBJECT_NAME":"GALAXY 35 (G-35)","OBJECT_ID":"2022-170A","EPOCH":"2026-03-14T11:29:25.013472","MEAN_MOTION":1.00272218,"ECCENTRICITY":0.00019538,"INCLINATION":0.015,"RA_OF_ASC_NODE":133.6078,"ARG_OF_PERICENTER":222.8193,"MEAN_ANOMALY":254.8999,"EPHEMERIS_TYPE":0,"CLASSIFICATION_TYPE":"U","NORAD_CAT_ID":54741,"ELEMENT_SET_NO":999,"REV_AT_EPOCH":1194,"BSTAR":0,"MEAN_MOTION_DOT":-1.63e-6,"MEAN_MOTION_DDOT":0},{"OBJECT_NAME":"GALAXY 36 (G-36)","OBJECT_ID":"2022-170B","EPOCH":"2026-03-14T13:13:15.055680","MEAN_MOTION":1.00272076,"ECCENTRICITY":0.0002284,"INCLINATION":0.0128,"RA_OF_ASC_NODE":180.8172,"ARG_OF_PERICENTER":226.8985,"MEAN_ANOMALY":233.7551,"EPHEMERIS_TYPE":0,"CLASSIFICATION_TYPE":"U","NORAD_CAT_ID":54742,"ELEMENT_SET_NO":999,"REV_AT_EPOCH":1182,"BSTAR":0,"MEAN_MOTION_DOT":-1.86e-6,"MEAN_MOTION_DDOT":0},{"OBJECT_NAME":"GALAXY 37 (G-37)","OBJECT_ID":"2023-112A","EPOCH":"2026-03-14T13:02:23.597088","MEAN_MOTION":1.00270649,"ECCENTRICITY":0.00020318,"INCLINATION":0.0222,"RA_OF_ASC_NODE":165.3756,"ARG_OF_PERICENTER":198.5187,"MEAN_ANOMALY":236.8645,"EPHEMERIS_TYPE":0,"CLASSIFICATION_TYPE":"U","NORAD_CAT_ID":57493,"ELEMENT_SET_NO":999,"REV_AT_EPOCH":959,"BSTAR":0,"MEAN_MOTION_DOT":0,"MEAN_MOTION_DDOT":0}]
